     2.100          NAVIGATION                              RINEX VERSION / TYPE
fic2rin                                 10/24/2016 00:10:28 PGM / RUN BY / DATE
                                                            END OF HEADER
19 16 10 24  0  0  0.0 -.521242152900D-03  .568434188608D-12  .000000000000D+00
     .560000000000D+02 -.105000000000D+02  .432946605392D-08 -.192763975450D-01
    -.417232513428D-06  .103900220711D-01  .473298132420D-05  .515363087273D+04
     .864000000000D+05 -.186264514923D-07  .410068063747D+00  .230967998505D-06
     .975200357329D+00  .297312500000D+03  .879761414874D+00 -.832641825731D-08
     .146791828755D-09  .100000000000D+01  .192000000000D+04  .000000000000D+00
     .240000000000D+01  .000000000000D+00 -.149011611938D-07  .560000000000D+02
     .792060000000D+05  .400000000000D+01
21 16 10 24  0  0  0.0 -.532915815711D-03 -.113686837722D-12  .000000000000D+00
     .300000000000D+02 -.570000000000D+02  .515378610445D-08 -.627165844021D+00
    -.284239649773D-05  .233615532052D-01  .753998756409D-05  .515380593681D+04
     .864000000000D+05 -.264495611191D-06  .133083028571D+01  .268220901489D-06
     .937319797966D+00  .228218750000D+03 -.174820982384D+01 -.883858244815D-08
     .635740766869D-10  .100000000000D+01  .192000000000D+04  .000000000000D+00
     .240000000000D+01  .000000000000D+00 -.977888703346D-08  .300000000000D+02
     .792060000000D+05  .400000000000D+01
22 16 10 24  0  0  0.0  .210331287235D-03 -.105728759081D-10  .000000000000D+00
     .730000000000D+02  .640625000000D+01  .535022285826D-08  .262854984622D+01
     .242143869400D-06  .734680029564D-02  .100899487734D-04  .515369526482D+04
     .864000000000D+05  .875443220139D-07  .237287449049D+01 -.167638063431D-07
     .923224874856D+00  .167187500000D+03 -.185389945961D+01 -.822927135361D-08
     .297155234851D-09  .100000000000D+01  .192000000000D+04  .000000000000D+00
     .240000000000D+01  .000000000000D+00 -.176951289177D-07  .730000000000D+02
     .792060000000D+05  .400000000000D+01
23 16 10 24  0  0  0.0 -.194370746613D-03 -.125055521494D-11  .000000000000D+00
     .600000000000D+01  .283125000000D+02  .532343602819D-08  .188708067114D+01
     .148080289364D-05  .111385413911D-01  .659003853798D-05  .515359206963D+04
     .864000000000D+05 -.294297933578D-06 -.283085897447D+01  .447034835815D-07
     .945589505633D+00  .248281250000D+03 -.252477215076D+01 -.845392356842D-08
     .442875590403D-10  .100000000000D+01  .192000000000D+04  .000000000000D+00
     .240000000000D+01  .000000000000D+00 -.200234353542D-07  .600000000000D+01
     .792060000000D+05  .400000000000D+01
24 16 10 24  0  0  0.0 -.250581651926D-04 -.568434188608D-12  .000000000000D+00
     .240000000000D+02 -.490625000000D+01  .502199490053D-08  .132429825262D+01
    -.968575477600D-07  .483636045828D-02  .752694904804D-05  .515372284698D+04
     .864000000000D+05 -.931322574615D-08 -.180582075349D+01  .670552253723D-07
     .947563840855D+00  .225937500000D+03  .395285975830D+00 -.838427781025D-08
    -.437518224390D-09  .100000000000D+01  .192000000000D+04  .000000000000D+00
     .240000000000D+01  .000000000000D+00  .232830643654D-08  .240000000000D+02
     .792060000000D+05  .400000000000D+01
25 16 10 24  0  0  0.0 -.269069802016D-03 -.682121026330D-11  .000000000000D+00
     .310000000000D+02  .355937500000D+02  .404409702430D-08 -.771694749350D+00
     .176765024662D-05  .562272826210D-02  .842101871967D-05  .515368755913D+04
     .864000000000D+05  .558793544769D-07 -.729058573930D+00  .111758708954D-06
     .978229585223D+00  .226343750000D+03  .771144456622D+00 -.793854495798D-08
    -.728601777760D-10  .100000000000D+01  .192000000000D+04  .000000000000D+00
     .240000000000D+01  .000000000000D+00  .558793544769D-08  .310000000000D+02
     .792060000000D+05  .400000000000D+01
26 16 10 24  0  0  0.0 -.491215381771D-03 -.557065504836D-11  .000000000000D+00
     .920000000000D+02  .453750000000D+02  .438732560686D-08 -.113179305422D+01
     .244379043579D-05  .111177237704D-02  .816769897938D-05  .515360034180D+04
     .864000000000D+05 -.558793544769D-07 -.740667854395D+00 -.167638063431D-07
     .960114291128D+00  .224375000000D+03 -.185768725442D+00 -.804140638542D-08
    -.346443002170D-10  .100000000000D+01  .192000000000D+04  .000000000000D+00
     .240000000000D+01  .000000000000D+00  .745058059692D-08  .920000000000D+02
     .792060000000D+05  .400000000000D+01
28 16 10 24  0  0  0.0  .561577267945D-03  .295585778076D-11  .000000000000D+00
     .830000000000D+02  .635000000000D+02  .367265298074D-08 -.226882420218D+01
     .324286520481D-05  .200175902573D-01  .830553472042D-05  .515363543892D+04
     .864000000000D+05  .316649675369D-06 -.652782641166D+00  .447034835815D-07
     .989411592667D+00  .232406250000D+03 -.160731226447D+01 -.742423782073D-08
     .104290058385D-09  .100000000000D+01  .192000000000D+04  .000000000000D+00
     .485000000000D+01  .000000000000D+00 -.111758708954D-07  .830000000000D+02
     .792060000000D+05  .400000000000D+01
29 16 10 24  0  0  0.0  .646485015750D-03 -.147792889038D-11  .000000000000D+00
     .290000000000D+02 -.662500000000D+01  .420124642735D-08 -.106462260007D+01
    -.283122062683D-06  .504481024109D-03  .469572842121D-05  .515372981834D+04
     .864000000000D+05  .149011611938D-07  .371585750587D+00 -.391155481339D-07
     .979088588775D+00  .300468750000D+03  .246409693439D-01 -.807712215884D-08
     .939324840936D-10  .100000000000D+01  .192000000000D+04  .000000000000D+00
     .240000000000D+01  .000000000000D+00 -.102445483208D-07  .290000000000D+02
     .792060000000D+05  .400000000000D+01
30 16 10 24  0  0  0.0  .155057758093D-03  .113686837722D-11  .000000000000D+00
     .670000000000D+02  .343750000000D+01  .481912930751D-08  .364570841885D+00
     .298023223877D-07  .239948765375D-02  .824779272079D-05  .515375944519D+04
     .864000000000D+05  .745058059692D-08 -.171401737312D+01 -.316649675369D-07
     .950255794448D+00  .211718750000D+03 -.312386483676D+01 -.824748639806D-08
    -.465019369923D-09  .100000000000D+01  .192000000000D+04  .000000000000D+00
     .240000000000D+01  .000000000000D+00  .372529029846D-08  .670000000000D+02
     .792060000000D+05  .400000000000D+01
31 16 10 24  0  0  0.0  .240806024522D-03 -.204636307899D-11  .000000000000D+00
     .840000000000D+02 -.146875000000D+01  .442768443083D-08  .211795634115D+00
    -.206753611565D-06  .839464948513D-02  .768154859543D-05  .515357865143D+04
     .864000000000D+05  .912696123123D-07 -.174603467093D+01 -.353902578354D-07
     .969277680820D+00  .236968750000D+03 -.368028005501D+00 -.812533845296D-08
    -.383230248792D-09  .100000000000D+01  .192000000000D+04  .000000000000D+00
     .240000000000D+01  .000000000000D+00 -.135041773319D-07  .840000000000D+02
     .792060000000D+05  .400000000000D+01
32 16 10 24  0  0  0.0 -.167112797499D-03 -.162572177942D-10  .000000000000D+00
     .510000000000D+02  .331562500000D+02  .490198990184D-08 -.260570191559D+01
     .177882611752D-05  .620995531790D-03  .627897679806D-05  .515365412140D+04
     .864000000000D+05  .540167093277D-07 -.283256326818D+01 -.763684511185D-07
     .959241385465D+00  .257281250000D+03 -.243488637657D+01 -.826570144250D-08
     .353586156854D-10  .100000000000D+01  .192000000000D+04  .000000000000D+00
     .240000000000D+01  .000000000000D+00  .465661287308D-09  .510000000000D+02
     .792060000000D+05  .400000000000D+01
14 16 10 23 23 59 44.0 -.416063703597D-04 -.193267624127D-11  .000000000000D+00
     .600000000000D+01  .270625000000D+02  .474055460598D-08  .270732876014D+01
     .135414302349D-05  .872522825375D-02  .603683292866D-05  .515359295654D+04
     .863840000000D+05  .204890966415D-07 -.274974721531D+01 -.158324837685D-06
     .963409050357D+00  .262843750000D+03 -.194398282575D+01 -.803569186168D-08
    -.482162941165D-10  .100000000000D+01  .192000000000D+04  .000000000000D+00
     .240000000000D+01  .000000000000D+00 -.931322574615D-08  .600000000000D+01
     .793860000000D+05  .400000000000D+01
 5 16 10 23 23 59 44.0 -.826106406748D-04  .238742359215D-11  .000000000000D+00
     .000000000000D+00 -.590625000000D+01  .483448709008D-08 -.233708345652D+01
    -.568106770515D-06  .485392927658D-02  .103153288364D-04  .515362204933D+04
     .863840000000D+05  .707805156708D-07  .239686608220D+01 -.104308128357D-06
     .946583963696D+00  .173750000000D+03  .538006155579D+00 -.806212153401D-08
     .311084386485D-09  .100000000000D+01  .192000000000D+04  .000000000000D+00
     .240000000000D+01  .000000000000D+00 -.107102096081D-07  .000000000000D+00
     .801060000000D+05  .400000000000D+01
28 16 10 23 23 59 44.0  .561579130590D-03  .295585778076D-11  .000000000000D+00
     .600000000000D+01  .635000000000D+02  .367265298074D-08 -.227115791201D+01
     .324286520481D-05  .200175886275D-01  .830553472042D-05  .515363543320D+04
     .863840000000D+05  .316649675369D-06 -.652782506577D+00  .447034835815D-07
     .989411599982D+00  .232406250000D+03 -.160731230982D+01 -.742423782073D-08
     .104290058385D-09  .100000000000D+01  .192000000000D+04  .000000000000D+00
     .240000000000D+01  .000000000000D+00 -.111758708954D-07  .600000000000D+01
     .819060000000D+05  .400000000000D+01
13 16 10 23 23 59 44.0 -.510099343956D-04 -.204636307899D-11  .000000000000D+00
     .260000000000D+02  .322187500000D+02  .468555231492D-08  .136472683200D+01
     .166893005371D-05  .400611525401D-02  .643730163574D-05  .515368296432D+04
     .863840000000D+05  .316649675369D-07 -.271174456519D+01 -.949949026108D-07
     .970890378304D+00  .260625000000D+03  .192272290732D+01 -.809247994141D-08
     .517878714584D-10  .100000000000D+01  .192000000000D+04  .000000000000D+00
     .240000000000D+01  .000000000000D+00 -.111758708954D-07  .260000000000D+02
     .856860000000D+05  .400000000000D+01
